identifier,name,equipment,teaching,typeAccessibility,knowsAbout,locality,same_as_wikidata_locality,province,same_as_wikidata_province,postalCode,neighborhood,same_as_wikidata_neighborhood,district,same_as_wikidata_district,latitude,longitude,telephone,faxNumber,email,titularity,laborDay,schedule,extraUses,otherUses,yardCategory,yardNumber,accessibilityComment,directAccess,otherAccess,wcAccessibles,shade,furniture,services,surface,conservationState,greenZonesProximity,facilitiesProximity,observations,bus,renfe,same_as_wikidata_renfe,metro,same_as_wikidata_metro,streetAddress
176850,Colegio publico adolfo suarez,Comedor; horario ampliado; planes de mejora,Ensenanzas: segundo ciclo de e. infantil - primaria - educacion secundaria obligatoria,0,Http://www.madrid.es/sites/v/index.jsp?vgnextchannel=bfa48ab43d6bb410vgnvcm100000171f5a0arcrd&vgnextoid=a9344b6faa61c010vgnvcm1000000b205a0arcrd,Madrid,https://wikidata.org/entity/Q2807,Community of Madrid,https://wikidata.org/entity/Q5756,28050,Valdefuentes,https://wikidata.org/entity/Q10388714,Hortaleza,https://wikidata.org/entity/Q1928529,444807,4482402,917 502 058 / 676 562 792,917 502 058,,Ayuntamiento,Lunes-viernes continua,9:00-16:00,Actividades extraescolares 16:00-18:00,Actividades extraescolares; dias no lectivos; campamentos urbanos; talleres fin de semana,III,3,Si,Si (c/ infanta catalina micaela),,No,Si (150m2),Porterias; canastas; bancos,Alumbrado,3868;71 + 1384;25 + 4474;92,Mejorable (elementos deteriorados),,,,174,,,,,Calle infanta catalina micaela 31
4693138,Colegio publico agustin rodriguez sahagun,Horario ampliado; comedor; planes de mejora,Ensenanza: educacion infantil - primaria - ensenanza Bilingue,0,Http://www.madrid.es/sites/v/index.jsp?vgnextchannel=bfa48ab43d6bb410vgnvcm100000171f5a0arcrd&vgnextoid=706c615f4eb66110vgnvcm1000000b205a0arcrd,Madrid,https://wikidata.org/entity/Q2807,Community of Madrid,https://wikidata.org/entity/Q5756,28031,Casco Historico de Vallecas,https://wikidata.org/entity/Q16544370,Villa de Vallecas,https://wikidata.org/entity/Q1947988,447178,4468793,913 324 348,914 941 475,,Ayuntamiento,Lunes-viernes continua,9:00-16:00,Actividades extraescolares 16:00-20:00,,II,2,Si,Si (c/ granja de san ildefonso),Av. villa de vallecas (directo a canchas),Si,Porches; arbolado,Porterias; canastas; columpios; bancos; ping pong; rocodromo; huerto.,Alumbrado; fuente,5748;56,Bueno,Parque mundaire (450m); parque de las cataratas (550m); parque mundaire (650m),Orichas stadium (300m); instalacion deportiva miguel guillen (900m),,142,,,,,Calle la granja de san ildefonso 17
5075,Colegio publico agustina diez,Comedor; horario ampliado,Ensenanza: educacion infantil - primaria,0,Http://www.madrid.es/sites/v/index.jsp?vgnextchannel=bfa48ab43d6bb410vgnvcm100000171f5a0arcrd&vgnextoid=dd68a3f5ca71c010vgnvcm1000000b205a0arcrd,Madrid,https://wikidata.org/entity/Q2807,Community of Madrid,https://wikidata.org/entity/Q5756,28038,Portazgo,https://wikidata.org/entity/Q18005921,Puente de Vallecas,https://wikidata.org/entity/Q2003054,445067,4471046,917 770 073,917 770 073,,Ayuntamiento,Lunes-viernes continua,9:00-16:00,"Actividades extraescolares 16:00-17:00 ; ""quedamos al salir del cole"" 16:00-20:00",,III,2,Si,No,No,Si,No,Porterias,Alumbrado,1111;43,Aceptable,Parque de la constitucion (200m); parque azorin (600m),Biblioteca miguel hernandez (750m),,54 ; 58 ; 103 ; 143,,,Alto del Arenal,https://wikidata.org/entity/Q2479465,Calle vesubio 5
5076,Colegio publico alberto alcocer,Comedor; transporte; horario ampliado; planes de mejora,Ensenanza: educacion infantil - primaria - ensenanza Bilingue,0,Http://www.madrid.es/sites/v/index.jsp?vgnextchannel=bfa48ab43d6bb410vgnvcm100000171f5a0arcrd&vgnextoid=2388a3f5ca71c010vgnvcm1000000b205a0arcrd,Madrid,https://wikidata.org/entity/Q2807,Community of Madrid,https://wikidata.org/entity/Q5756,28022,Hellin,https://wikidata.org/entity/Q10294546,San Blas,https://wikidata.org/entity/Q2001937,448087,4476035,913 202 609,913 200 446,,Ayuntamiento,Lunes-viernes partida,9:00-16:00,Actividades extraescolares 16:00-17:00,,III,2,Si,Si,Principal del centro,No,Porche pequeno,Porterias; canastas,No,5036;74822,Bueno,Parque paraiso,,,38 ; 48 ; 140; 153,,,Las Musas,https://wikidata.org/entity/Q2482052,Avenida canillejas a vicalvaro 56
5077,Colegio publico alcalde de mostoles,Transporte; comedor; horario ampliado; planes de mejora,Ensenanza: educacion infantil - primaria,0,Http://www.madrid.es/sites/v/index.jsp?vgnextchannel=bfa48ab43d6bb410vgnvcm100000171f5a0arcrd&vgnextoid=7898a3f5ca71c010vgnvcm1000000b205a0arcrd,Madrid,https://wikidata.org/entity/Q2807,Community of Madrid,https://wikidata.org/entity/Q5756,28044,Las Aguilas,https://wikidata.org/entity/Q5971372,Latina,https://wikidata.org/entity/Q794954,434091,4470207,917 055 465,915 095 129,,Ayuntamiento,Lunes-viernes continua,9:00-16:00,Actividades extraescolares 16:00-17:00,,III,2,Si,Si,,No,Techado en infantil,Canastas; porterias; columpio,No,2186;118,,,,,34 ; 39 ; 139 ; 117 ; 17,,,,,Calle aldeanueva de la vera 9
5078,Colegio publico alfonso x el sabio,Comedor; transporte; horario ampliado; planes de mejora,Ensenanza: educacion infantil - primaria,0,Http://www.madrid.es/sites/v/index.jsp?vgnextchannel=bfa48ab43d6bb410vgnvcm100000171f5a0arcrd&vgnextoid=cda8a3f5ca71c010vgnvcm1000000b205a0arcrd,Madrid,https://wikidata.org/entity/Q2807,Community of Madrid,https://wikidata.org/entity/Q5756,28032,Casco Historico de Vicalvaro,https://wikidata.org/entity/Q16544374,Vicalvaro,https://wikidata.org/entity/Q589403,448774,4472685,913 719 661,917 765 962,,Ayuntamiento,Lunes-viernes continua,9:00-16:00,Actividades extraescolares 16:00-17:00,Cruz roja 16:00-20:30,III,2,Si,Si (a patio infantil),Acceso directo a patio infantil,No,No,Porterias (primaria); columpios,No,573;92,Bueno,Parque san cipriano (300m),Biblioteca vicalvaro (600m); centro cultural el madrono (600m); cdm margot moles (850m),,4; 71; 100; 106; e-3,,,San Cipriano,https://wikidata.org/entity/Q2479793,Calle fuente de san pedro 6
10770379,Colegio publico alfredo di stefano,,Ensenanza: educacion infantil - primaria - ensenanza Bilingue,0,Http://www.madrid.es/sites/v/index.jsp?vgnextchannel=bfa48ab43d6bb410vgnvcm100000171f5a0arcrd&vgnextoid=32c2f9dd06e95610vgnvcm1000001d4a900arcrd,Madrid,https://wikidata.org/entity/Q2807,Community of Madrid,https://wikidata.org/entity/Q5756,28022,Hellin,https://wikidata.org/entity/Q10294546,Hortaleza,https://wikidata.org/entity/Q1928529,448087,4476035,660 906 527,,,Ayuntamiento,Lunes-viernes partida,9:00-16:00,Actividades extraescolares 16:00-18:00,,III,3,Si,Si (c/ felix candela),,No,Porche; pergola; arbolado,Porterias; canastas; columpios; bancos,Fuentes,,Bueno,,,,171; 174,,,,,Calle felix candela 4
5079,Colegio publico alhambra,Comedor; transporte; horario ampliado; planes de mejora,Ensenanza: educacion infantil - primaria - ensenanza Bilingue,0,Http://www.madrid.es/sites/v/index.jsp?vgnextchannel=bfa48ab43d6bb410vgnvcm100000171f5a0arcrd&vgnextoid=13c8a3f5ca71c010vgnvcm1000000b205a0arcrd,Madrid,https://wikidata.org/entity/Q2807,Community of Madrid,https://wikidata.org/entity/Q5756,28035,Penagrande,https://wikidata.org/entity/Q3319582,Fuencarral-El Pardo,https://wikidata.org/entity/Q656196,438407,4481677,913 162 273,913 737 021,,Ayuntamiento,Lunes-viernes continua,9:00-16:00,Actividades extraescolares 16:00-18:00,Talleres 'patios abiertos' sabados 10:00-14:00,III,3,Si,Si (c/ ramon gomez de la serna),,No,Si (300m2); arbolado,Canastas; porterias; juegos; bancos; papeleras,Fuentes,3042;48,Mejorable (actualmente realizando obras),,,Participa actualmente de 'patios abiertos',49 ; 67 ; 82,,,Lacoma,https://wikidata.org/entity/Q2482146,Calle ramon gomez de la serna 103
4690849,Colegio publico alvaro de bazan,Horario ampliado; comedor; integracion prefernete (trastornos generales del desarrollo),Ensenanza: educacion infantil - primaria,0,Http://www.madrid.es/sites/v/index.jsp?vgnextchannel=bfa48ab43d6bb410vgnvcm100000171f5a0arcrd&vgnextoid=eb583058a6166110vgnvcm1000000b205a0arcrd,Madrid,https://wikidata.org/entity/Q2807,Community of Madrid,https://wikidata.org/entity/Q5756,28022,Rosas,https://wikidata.org/entity/Q18880469,San Blas,https://wikidata.org/entity/Q2001937,448486,4474724,917 757 114,917 757 114,,Ayuntamiento,Lunes-viernes continua,9:00-16:00,Actividades extraescolares 16:00-17:00,Futbol antiguos alumnos,III,4,Si,Si (c/ zurich),,No,No,Porterias; mesas de juegos,Alumbrado,2329;5797,Mejorable (deteriorado),,,Tiene patios interiores con diferentes equipamientos.,4; 106; 140; 153,,,,,Calle zurich 10
5080,Colegio publico amadeo vives,Comedor; horario ampliado; planes de mejora; integracion preferente (trastornos generales del desarrollo),Ensenanza: educacion infantil - primaria,0,Http://www.madrid.es/sites/v/index.jsp?vgnextchannel=bfa48ab43d6bb410vgnvcm100000171f5a0arcrd&vgnextoid=68d8a3f5ca71c010vgnvcm1000000b205a0arcrd,Madrid,https://wikidata.org/entity/Q2807,Community of Madrid,https://wikidata.org/entity/Q5756,28047,Aluche,https://wikidata.org/entity/Q31140,Latina,https://wikidata.org/entity/Q794954,436005,4472352,917 183 389,917 199 055,,Ayuntamiento,Lunes-viernes continua,9:00-16:00,Actividades extraescolares 16:00-17:00,,III,2,Si,Si (patio infantil),,No,Si (zona de sombra con arboles),Canastas; porterias,No,3205;56,,,,Comparte espacios con una escuela infantil independiente. ,25 ; 31 ; 138,,,,,Calle los yebenes 6
5081,Colegio publico amador de los rios,Comedor; planes de mejora,Ensenanza: educacion infantil - primaria - ensenanza Bilingue,0,Http://www.madrid.es/sites/v/index.jsp?vgnextchannel=bfa48ab43d6bb410vgnvcm100000171f5a0arcrd&vgnextoid=bde8a3f5ca71c010vgnvcm1000000b205a0arcrd,Madrid,https://wikidata.org/entity/Q2807,Community of Madrid,https://wikidata.org/entity/Q5756,28028,Fuente del Berro,https://wikidata.org/entity/Q3814564,Salamanca,https://wikidata.org/entity/Q1773521,443459,4475286,917 252 610,917 261 891,,Ayuntamiento,Lunes-viernes continua,9:00-16:00,Actividades extraescolares 16:00-17:00,Actividades deportivas ,I,2,Si,Si (paseo marques de zafra y c/ florencio diaz),,Si,No,Columpios; porterias; canastas; bancos,No,1610;42,Actualmente en obras,Jardin de las mujeres de ventas (140m); quinta de la fuente del berro (500m),Centro deportivo fuente del berro (650m),,12 ; 2 ; 56 ; 71 ; 143; 156; c2,,,Manuel Becerra,https://wikidata.org/entity/Q2056869,Paseo marques de zafra 16
5083,Colegio publico amos acero,Comedor; integracion preferente (trastornos generales del desarrollo),Ensenanza: educacion infantil - primaria,0,Http://www.madrid.es/sites/v/index.jsp?vgnextchannel=bfa48ab43d6bb410vgnvcm100000171f5a0arcrd&vgnextoid=0309a3f5ca71c010vgnvcm1000000b205a0arcrd,Madrid,https://wikidata.org/entity/Q2807,Community of Madrid,https://wikidata.org/entity/Q5756,28053,Palomeras Bajas,https://wikidata.org/entity/Q10343902,Puente de Vallecas,https://wikidata.org/entity/Q2003054,443664,4471282,914 785 161,914 772 415,,Ayuntamiento,Lunes-viernes continua,9:00-16:00,Actividades extraescolares 16:00-20:00,"Escuelas deportivas municipales y el programa ""quedamos al salir de clase""",III,1,Si,No,,No,Si (2x12m),Porterias; canastas,No,612;31,Mejorable (suelos en mal estado),Parque amos acero (150m); parque del payaso fofo (500m),El espacio (300m); cdm angel nieto (550m); instalacion deportiva basica (700m); biblioteca vallecas (800m),,10 ; 54 ; 57 ; 58 ; 103 ; 111 ; 310 ; 410,,,Nueva Numancia,https://wikidata.org/entity/Q2696516,Calle rodriguez espinosa 54
5295314,Colegio publico angel nieto,,Ensenanza: educacion infantil - primaria - ensenanza Bilingue  centro de nueva creacion curso 2019-20 se imparte niveles desde infantil hasta primero de primaria.,0,Http://www.madrid.es/sites/v/index.jsp?vgnextchannel=bfa48ab43d6bb410vgnvcm100000171f5a0arcrd&vgnextoid=e5ebe48403b60210vgnvcm2000000c205a0arcrd,Madrid,https://wikidata.org/entity/Q2807,Community of Madrid,https://wikidata.org/entity/Q5756,28051,Ensanche de Vallecas,https://wikidata.org/entity/Q3847485,Villa de Vallecas,https://wikidata.org/entity/Q1947988,450106,4468011,912 723 449 - 660 486 591,,Cp.angelnieto.madrid@educa.madrid.org,Ayuntamiento,Lunes-viernes continua,9:00-16:00,Actividades extraescolares 16:00-18:30,,III,2,Si,No,,No,No,No,No,,Sin terminar de construir,Parque de la gavia (300m); plaza las artes (400m),,,142 y 145,,,Las Suertes,https://wikidata.org/entity/Q3827256,Avenida las suertes 109
5085,Colegio publico antonio de nebrija,Comedor; horario ampliado; planes de mejora,Ensenanza: educacion infantil - primaria,0,Http://www.madrid.es/sites/v/index.jsp?vgnextchannel=bfa48ab43d6bb410vgnvcm100000171f5a0arcrd&vgnextoid=5819a3f5ca71c010vgnvcm1000000b205a0arcrd,Madrid,https://wikidata.org/entity/Q2807,Community of Madrid,https://wikidata.org/entity/Q5756,28021,Los Rosales,https://wikidata.org/entity/Q10319807,Villaverde,https://wikidata.org/entity/Q919536,441729,4467039,917 963 500,915 051 317,,Ayuntamiento,Lunes-viernes continua,9:00-16:00,Actividades extraescolares 16:00-19:00,Federaciones deportivas,II,2,Si,Si (c/ villarramiel),C/ pilar lorengar; c/ diamante,Si,No,Porterias; canastas; pistas voley; bancos,Alumbrado; fuente,440;45,Recien reformado,,,,85 ; 123,Villaverde Bajo railway station,https://wikidata.org/entity/Q2560615,,,Calle juan jose martinez seco 77
5792171,Colegio publico antonio fontan,,Ensenanza: educacion infantil - primaria,0,Http://www.madrid.es/sites/v/index.jsp?vgnextchannel=bfa48ab43d6bb410vgnvcm100000171f5a0arcrd&vgnextoid=93f1a0910bcca210vgnvcm2000000c205a0arcrd,Madrid,https://wikidata.org/entity/Q2807,Community of Madrid,https://wikidata.org/entity/Q5756,28049,El Goloso,https://wikidata.org/entity/Q10271137,Fuencarral-El Pardo,https://wikidata.org/entity/Q656196,441221,4484771,911 722 243,911 720 010,Cp.antoniofontan.madrid@educa.madrid.org,Ayuntamiento,Lunes-viernes partida,9:00-16:00,Actividades extraescolares 16:00-17:00,Actividades ampa 16:00-18:00; club voleybol 18:00-20:00,II,3,Si,Si,,Si,Si (20%),Canastas; porterias; bancos; papeleras,Alumbrado; fuente,3086;44,Mejorable (una zona amplia inhabilitada por falta de arreglo),,,,134; 178,,,,,Avenida santuario de valverde 71
5087,Colegio publico antonio machado,Comedor; planes de mejora; horario ampliado,Ensenanza: educacion infantil - primaria,0,Http://www.madrid.es/sites/v/index.jsp?vgnextchannel=bfa48ab43d6bb410vgnvcm100000171f5a0arcrd&vgnextoid=ad29a3f5ca71c010vgnvcm1000000b205a0arcrd,Madrid,https://wikidata.org/entity/Q2807,Community of Madrid,https://wikidata.org/entity/Q5756,28044,Buenavista,https://wikidata.org/entity/Q953929,Carabanchel,https://wikidata.org/entity/Q1001991,436078,4469020,915 088 661,914 006 788,,Ayuntamiento,Lunes-viernes continua,9:00-16:00,Actividades extraescolares 16:00-18:00,,III,1,No (escaleras),Si (av. carabanchel alto),,No,No,Porterias; canastas,No,3000;74,Bueno,,,,35 ; 47,,,,,Calle allariz 3
5088,Colegio publico antonio moreno rosales,Comedor; planes de mejora,Ensenanza: educacion infantil - primaria curso 2018/19 trasladado por obras al colegio publico peru / calle baleares 18.,0,Http://www.madrid.es/sites/v/index.jsp?vgnextchannel=bfa48ab43d6bb410vgnvcm100000171f5a0arcrd&vgnextoid=f249a3f5ca71c010vgnvcm1000000b205a0arcrd,Madrid,https://wikidata.org/entity/Q2807,Community of Madrid,https://wikidata.org/entity/Q5756,28012,Embajadores,https://wikidata.org/entity/Q2449844,Centro,https://wikidata.org/entity/Q1763376,440501,4473665,915 390 646,915 390 646,,Ayuntamiento,Lunes-viernes continua,9:00-16:00,,,III,1,,No,,No,No,,No,264;65,,Parque casino de la reina (700m),Centro cultural lavapies (240m),,6 ; 26 ; 32,,,Tirso de Molina,https://wikidata.org/entity/Q2474438,Calle olmo 4
5091,Colegio publico aragon,Comedor; planes de mejora,Ensenanza: educacion infantil - primaria ensenanza Bilingue,0,Http://www.madrid.es/sites/v/index.jsp?vgnextchannel=bfa48ab43d6bb410vgnvcm100000171f5a0arcrd&vgnextoid=4859a3f5ca71c010vgnvcm1000000b205a0arcrd,Madrid,https://wikidata.org/entity/Q2807,Community of Madrid,https://wikidata.org/entity/Q5756,28038,Palomeras Sureste,https://wikidata.org/entity/Q10343901,Puente de Vallecas,https://wikidata.org/entity/Q2003054,445907,4471511,913 039 852,913 806 367,,Ayuntamiento,Lunes-viernes continua,9:00-17:00,Actividades extraescolares 15:00-17:00,,III,2,No (escaleras),Si,,No,Si,Porterias; canastas,Alumbrado,1953;73,Mejorable (falta de mantenimiento),Parque lineal de palomeras (150m),Cd nuevas palomeras (0m),,54 ; 58 ; 103 ; 142 ; 143 ; 144,,,Miguel Hernandez,https://wikidata.org/entity/Q2479837,Avenida rafael alberti 2
5092,Colegio publico aravaca,Integracion (general); comedor,Ensenanza: educacion infantil - primaria -  ensenanza Bilingue -,0,Http://www.madrid.es/sites/v/index.jsp?vgnextchannel=bfa48ab43d6bb410vgnvcm100000171f5a0arcrd&vgnextoid=9d69a3f5ca71c010vgnvcm1000000b205a0arcrd,Madrid,https://wikidata.org/entity/Q2807,Community of Madrid,https://wikidata.org/entity/Q5756,28023,Aravaca,https://wikidata.org/entity/Q3314682,Moncloa-Aravaca,https://wikidata.org/entity/Q2017682,433385,4479176,913 078 119 - 913 071 832,913 071 832,,Ayuntamiento,Lunes-viernes continua,9:00-16:00,Actividades extraescolares 16:00-17:00,,I,3,Si (algunas barreras; bordillos),Si (c/ estudio),,Si,No,Porterias; canastas; bancos,fuente,5441,,Malo (salvo pistas deportivas),Parque paseo ermita (500m),Centro cultural aravaca (280m),160; 161,,,,,Calle estudio 6
5093,Colegio publico arcipreste de hita,Comedor; horario ampliado; planes de mejora,Ensenanza: educacion infantil - primaria,0,Http://www.madrid.es/sites/v/index.jsp?vgnextchannel=bfa48ab43d6bb410vgnvcm100000171f5a0arcrd&vgnextoid=e289a3f5ca71c010vgnvcm1000000b205a0arcrd,Madrid,https://wikidata.org/entity/Q2807,Community of Madrid,https://wikidata.org/entity/Q5756,28025,Abrantes,https://wikidata.org/entity/Q3773949,Carabanchel,https://wikidata.org/entity/Q1001991,438524,4470930,915 605 495,914 605 635,,Ayuntamiento,Lunes-viernes continua,9:00-16:00,Actividades extraescolares 16:00-18:00,,III,1,Si,Si (c/ antonio moreno),,No,No,Porterias; canastas; juegos,Alumbrado; fuente,844;42,Bueno,Parque emperatriz maria de austria,Polideportivo san vicente de saul,,55 ; 108 ; 118 ; 247,,,Opanel,https://wikidata.org/entity/Q2482116,Calle antonio moreno 25
5094,Colegio publico arquitecto gaudi,Comedor; horario ampliado; planes de mejora,Ensenanza: educacion infantil - primaria,1,Http://www.madrid.es/sites/v/index.jsp?vgnextchannel=bfa48ab43d6bb410vgnvcm100000171f5a0arcrd&vgnextoid=3899a3f5ca71c010vgnvcm1000000b205a0arcrd,Madrid,https://wikidata.org/entity/Q2807,Community of Madrid,https://wikidata.org/entity/Q5756,28016,Nueva Espana,https://wikidata.org/entity/Q10338128,Chamartin,https://wikidata.org/entity/Q1766348,443279,4479632,913 506 564,913 506 564,,Ayuntamiento,Lunes-viernes,9:00-16:00,Actividades extraescolares 16:00-17:00,Club deportivo 17:00-20:00,II,3,Si,Si,,Si,Toldos (1 patio),Canastas; bancos,Alumbrado (1 patio),303;95 + 489;12,Bueno (recien arreglado),Jardin gloria fuertes (800m),Instalacion deportiva (210m),Patio disgregado en espacios estrechos alrededor del edificio. ,16 ; 29 ; 49 ; 70 ; 107 ; 150 ; 229,,,Pio XII,https://wikidata.org/entity/Q2635957,Calle rosa jardon 10
5095,Colegio publico asturias,Comedor; horario ampliado; planes de mejora,Ensenanza: educacion infantil - primaria - ensenanza Bilingue,0,Http://www.madrid.es/sites/v/index.jsp?vgnextchannel=bfa48ab43d6bb410vgnvcm100000171f5a0arcrd&vgnextoid=d2c9a3f5ca71c010vgnvcm1000000b205a0arcrd,Madrid,https://wikidata.org/entity/Q2807,Community of Madrid,https://wikidata.org/entity/Q5756,28018,Palomeras Sureste,https://wikidata.org/entity/Q10343901,Puente de Vallecas,https://wikidata.org/entity/Q2003054,445456,4470478,917 770 635,917 850 680,,Ayuntamiento,Lunes-viernes continua,9:00-16:00,Actividades extraescolares 16:00-17:00,Asociacion crecer martes 17:00-19:00,II,4,Si (patios inferiores),Si (c/ asturianos),C/ rafael alberti,Si,Porches (en patio inferior),Porterias; canastas (arriba),Alumbrado (arriba),5051;2289,Bueno,Parque de la paloma (30m); parque lineal de palomeras (270m),Biblioteca miguel herdez (160m),,54 ; 144,,,,,Calle asturianos 2
5431144,Colegio publico ausias march,Horario ampliado; comedor,Ensenanza: educacion infantil - primaria,0,Http://www.madrid.es/sites/v/index.jsp?vgnextchannel=bfa48ab43d6bb410vgnvcm100000171f5a0arcrd&vgnextoid=67c74431fcf04210vgnvcm1000000b205a0arcrd,Madrid,https://wikidata.org/entity/Q2807,Community of Madrid,https://wikidata.org/entity/Q5756,28021,Butarque,https://wikidata.org/entity/Q390453,Villaverde,https://wikidata.org/entity/Q919536,442694,4466201,917 109 916,917 964 694,P.ausiasmarch.madrid@educa.madrid.org,Ayuntamiento,Lunes-viernes partida,9:00-16:00,Actividades extraescolares 16:00-18:00,Actividades complementarias en dias no lectivos,III,2,Si,Si,,No,Pocos,Canastas; porterias; huerto; mesas; areneros,Alumbrado; fuente,2121;04,Regular (suelo se encharca),,,,85,,,,,Calle estefanita 9
5098,Colegio publico azorin,Comedor; transporte; planes de mejora,Ensenanza: educacion infantil - primaria,0,Http://www.madrid.es/sites/v/index.jsp?vgnextchannel=bfa48ab43d6bb410vgnvcm100000171f5a0arcrd&vgnextoid=7de9a3f5ca71c010vgnvcm1000000b205a0arcrd,Madrid,https://wikidata.org/entity/Q2807,Community of Madrid,https://wikidata.org/entity/Q5756,28021,San Cristobal,https://wikidata.org/entity/Q390457,Villaverde,https://wikidata.org/entity/Q919536,441653,4466044,917 975 733,917 231 639,,Ayuntamiento,Lunes-viernes continua,9:00-16:00,,,I,1,Si,Si,,Si,2 techados (9x9m),Canastas; juegos,Alumbrado debil; fuente,991;41,Necesita reforma,,,,59 ; 79,,,,,Calle godella 57
5099,Colegio publico barcelona,Comedor; horario ampliado; planes de mejora,Ensenanza: educacion infantil - primaria,0,Http://www.madrid.es/sites/v/index.jsp?vgnextchannel=bfa48ab43d6bb410vgnvcm100000171f5a0arcrd&vgnextoid=c20aa3f5ca71c010vgnvcm1000000b205a0arcrd,Madrid,https://wikidata.org/entity/Q2807,Community of Madrid,https://wikidata.org/entity/Q5756,28041,Los Angeles,https://wikidata.org/entity/Q390462,Villaverde,https://wikidata.org/entity/Q919536,440878,4467772,913 603 078,913 179 568,,Ayuntamiento,Lunes-viernes continua,9:00-16:00,Actividades extraescolares 16:00-18:00,,II,2,Si,Si (av verbena de la paloma),,Si,No,Porterias; canastas,Alumbrado; fuente,1070;13 + 867;54,Bueno,,,,18 ; 22 ; 59 ; 79 ; 85 ; 86 ; 116,,,,,Avenida la verbena de la paloma 14
